1 37673U 11024A   14035.12285187  .00000910  00000-0  15183-3 0  9992
2 37673 098.0129 044.2320 0001459 103.2590 298.5645 14.72287658142658
